[{"OBJECT_NAME":"STARLINK-3255","OBJECT_ID":"2021-125AX","EPOCH":"2026-03-10T00:00:02.999808","MEAN_MOTION":15.78211819,"ECCENTRICITY":0.00041673,"INCLINATION":53.1953,"RA_OF_ASC_NODE":139.3803,"ARG_OF_PERICENTER":23.4963,"MEAN_ANOMALY":123.5744,"EPHEMERIS_TYPE":0,"CLASSIFICATION_TYPE":"U","NORAD_CAT_ID":50201,"ELEMENT_SET_NO":999,"REV_AT_EPOCH":593,"BSTAR":0.00095456627,"MEAN_MOTION_DOT":0.00169642,"MEAN_MOTION_DDOT":0},{"OBJECT_NAME":"STARLINK-36401","OBJECT_ID":"2026-025D","EPOCH":"2026-03-09T20:06:48.769344","MEAN_MOTION":15.75331288,"ECCENTRICITY":0.00021846,"INCLINATION":97.2829,"RA_OF_ASC_NODE":180.4287,"ARG_OF_PERICENTER":49.8467,"MEAN_ANOMALY":310.299,"EPHEMERIS_TYPE":0,"CLASSIFICATION_TYPE":"U","NORAD_CAT_ID":67696,"ELEMENT_SET_NO":999,"REV_AT_EPOCH":596,"BSTAR":0.0023252333,"MEAN_MOTION_DOT":0.00364115,"MEAN_MOTION_DDOT":0}]
